[{"OBJECT_NAME":"IRIDIUM 131","OBJECT_ID":"2017-083K","EPOCH":"2026-03-09T21:48:59.192352","MEAN_MOTION":14.34218122,"ECCENTRICITY":0.00022716,"INCLINATION":86.4027,"RA_OF_ASC_NODE":3.6576,"ARG_OF_PERICENTER":84.0859,"MEAN_ANOMALY":276.0595,"EPHEMERIS_TYPE":0,"CLASSIFICATION_TYPE":"U","NORAD_CAT_ID":43079,"ELEMENT_SET_NO":999,"REV_AT_EPOCH":42987,"BSTAR":0.00014526278,"MEAN_MOTION_DOT":4.27e-6,"MEAN_MOTION_DDOT":0},{"OBJECT_NAME":"CZ-6A DEB","OBJECT_ID":"2024-140HX","EPOCH":"2026-03-08T19:11:30.326784","MEAN_MOTION":14.3605698,"ECCENTRICITY":0.00930718,"INCLINATION":88.6014,"RA_OF_ASC_NODE":256.948,"ARG_OF_PERICENTER":211.5963,"MEAN_ANOMALY":147.9629,"EPHEMERIS_TYPE":0,"CLASSIFICATION_TYPE":"U","NORAD_CAT_ID":60844,"ELEMENT_SET_NO":999,"REV_AT_EPOCH":8224,"BSTAR":0.00022088072,"MEAN_MOTION_DOT":6.91e-6,"MEAN_MOTION_DDOT":0}]
